CCSDS_OMM_VERS = 2.0
CREATION_DATE  = 
ORIGINATOR     = 

OBJECT_NAME    = STARLINK-36313
OBJECT_ID      = 2026-049Q
CENTER_NAME    = EARTH
REF_FRAME      = TEME
TIME_SYSTEM    = UTC
MEAN_ELEMENT_THEORY = SGP/SGP4

EPOCH          = 2026-03-28T04:00:01.999584
MEAN_MOTION    = 15.80853608
ECCENTRICITY   = .0001127
INCLINATION    = 97.2843
RA_OF_ASC_NODE = 107.3378
ARG_OF_PERICENTER = 92.9677
MEAN_ANOMALY   = 62.5076

EPHEMERIS_TYPE = 0
CLASSIFICATION_TYPE = U
NORAD_CAT_ID   = 68156
ELEMENT_SET_NO = 999
REV_AT_EPOCH   = 360
BSTAR          = -.42816319E-3
MEAN_MOTION_DOT = -.81532E-3
MEAN_MOTION_DDOT = 0

CCSDS_OMM_VERS = 2.0
CREATION_DATE  = 
ORIGINATOR     = 

OBJECT_NAME    = STARLINK-37064
OBJECT_ID      = 2026-049R
CENTER_NAME    = EARTH
REF_FRAME      = TEME
TIME_SYSTEM    = UTC
MEAN_ELEMENT_THEORY = SGP/SGP4

EPOCH          = 2026-03-28T04:00:01.999584
MEAN_MOTION    = 15.80865251
ECCENTRICITY   = .00009576
INCLINATION    = 97.2844
RA_OF_ASC_NODE = 107.3348
ARG_OF_PERICENTER = 110.2935
MEAN_ANOMALY   = 36.6257

EPHEMERIS_TYPE = 0
CLASSIFICATION_TYPE = U
NORAD_CAT_ID   = 68157
ELEMENT_SET_NO = 999
REV_AT_EPOCH   = 359
BSTAR          = -.31499237E-3
MEAN_MOTION_DOT = -.60196E-3
MEAN_MOTION_DDOT = 0

CCSDS_OMM_VERS = 2.0
CREATION_DATE  = 
ORIGINATOR     = 

OBJECT_NAME    = STARLINK-37069
OBJECT_ID      = 2026-049S
CENTER_NAME    = EARTH
REF_FRAME      = TEME
TIME_SYSTEM    = UTC
MEAN_ELEMENT_THEORY = SGP/SGP4

EPOCH          = 2026-03-28T04:00:01.999584
MEAN_MOTION    = 15.75273151
ECCENTRICITY   = .00010443
INCLINATION    = 97.2838
RA_OF_ASC_NODE = 107.3344
ARG_OF_PERICENTER = 89.9743
MEAN_ANOMALY   = 54.4853

EPHEMERIS_TYPE = 0
CLASSIFICATION_TYPE = U
NORAD_CAT_ID   = 68158
ELEMENT_SET_NO = 999
REV_AT_EPOCH   = 359
BSTAR          = -.11151074E-2
MEAN_MOTION_DOT = -.16389E-2
MEAN_MOTION_DDOT = 0

CCSDS_OMM_VERS = 2.0
CREATION_DATE  = 
ORIGINATOR     = 

OBJECT_NAME    = STARLINK-37053
OBJECT_ID      = 2026-049T
CENTER_NAME    = EARTH
REF_FRAME      = TEME
TIME_SYSTEM    = UTC
MEAN_ELEMENT_THEORY = SGP/SGP4

EPOCH          = 2026-03-28T04:00:01.999584
MEAN_MOTION    = 15.80865626
ECCENTRICITY   = .00010198
INCLINATION    = 97.2843
RA_OF_ASC_NODE = 107.3453
ARG_OF_PERICENTER = 89.4234
MEAN_ANOMALY   = 83.1405

EPHEMERIS_TYPE = 0
CLASSIFICATION_TYPE = U
NORAD_CAT_ID   = 68159
ELEMENT_SET_NO = 999
REV_AT_EPOCH   = 359
BSTAR          = -.37037749E-3
MEAN_MOTION_DOT = -.70673E-3
MEAN_MOTION_DDOT = 0

CCSDS_OMM_VERS = 2.0
CREATION_DATE  = 
ORIGINATOR     = 

OBJECT_NAME    = STARLINK-36306
OBJECT_ID      = 2026-049U
CENTER_NAME    = EARTH
REF_FRAME      = TEME
TIME_SYSTEM    = UTC
MEAN_ELEMENT_THEORY = SGP/SGP4

EPOCH          = 2026-03-28T04:00:01.999584
MEAN_MOTION    = 15.75522921
ECCENTRICITY   = .00013087
INCLINATION    = 97.2837
RA_OF_ASC_NODE = 107.3431
ARG_OF_PERICENTER = 60.0038
MEAN_ANOMALY   = 106.3430

EPHEMERIS_TYPE = 0
CLASSIFICATION_TYPE = U
NORAD_CAT_ID   = 68160
ELEMENT_SET_NO = 999
REV_AT_EPOCH   = 360
BSTAR          = -.40800999E-2
MEAN_MOTION_DOT = -.577625E-2
MEAN_MOTION_DDOT = 0

CCSDS_OMM_VERS = 2.0
CREATION_DATE  = 
ORIGINATOR     = 

OBJECT_NAME    = STARLINK-37057
OBJECT_ID      = 2026-049V
CENTER_NAME    = EARTH
REF_FRAME      = TEME
TIME_SYSTEM    = UTC
MEAN_ELEMENT_THEORY = SGP/SGP4

EPOCH          = 2026-03-28T04:00:01.999584
MEAN_MOTION    = 15.80989188
ECCENTRICITY   = .00012336
INCLINATION    = 97.2841
RA_OF_ASC_NODE = 107.3413
ARG_OF_PERICENTER = 106.4048
MEAN_ANOMALY   = 57.5149

EPHEMERIS_TYPE = 0
CLASSIFICATION_TYPE = U
NORAD_CAT_ID   = 68161
ELEMENT_SET_NO = 999
REV_AT_EPOCH   = 359
BSTAR          = -.12716579E-2
MEAN_MOTION_DOT = -.239067E-2
MEAN_MOTION_DDOT = 0

CCSDS_OMM_VERS = 2.0
CREATION_DATE  = 
ORIGINATOR     = 

OBJECT_NAME    = STARLINK-37013
OBJECT_ID      = 2026-049W
CENTER_NAME    = EARTH
REF_FRAME      = TEME
TIME_SYSTEM    = UTC
MEAN_ELEMENT_THEORY = SGP/SGP4

EPOCH          = 2026-03-28T04:00:01.999584
MEAN_MOTION    = 15.80888920
ECCENTRICITY   = .00010983
INCLINATION    = 97.2843
RA_OF_ASC_NODE = 107.3534
ARG_OF_PERICENTER = 87.2345
MEAN_ANOMALY   = 106.7012

EPHEMERIS_TYPE = 0
CLASSIFICATION_TYPE = U
NORAD_CAT_ID   = 68162
ELEMENT_SET_NO = 999
REV_AT_EPOCH   = 359
BSTAR          = -.80552714E-3
MEAN_MOTION_DOT = -.152282E-2
MEAN_MOTION_DDOT = 0

CCSDS_OMM_VERS = 2.0
CREATION_DATE  = 
ORIGINATOR     = 

OBJECT_NAME    = STARLINK-36958
OBJECT_ID      = 2026-049X
CENTER_NAME    = EARTH
REF_FRAME      = TEME
TIME_SYSTEM    = UTC
MEAN_ELEMENT_THEORY = SGP/SGP4

EPOCH          = 2026-03-28T04:00:01.999584
MEAN_MOTION    = 15.80856532
ECCENTRICITY   = .00013023
INCLINATION    = 97.2847
RA_OF_ASC_NODE = 107.3520
ARG_OF_PERICENTER = 77.9736
MEAN_ANOMALY   = 107.4197

EPHEMERIS_TYPE = 0
CLASSIFICATION_TYPE = U
NORAD_CAT_ID   = 68163
ELEMENT_SET_NO = 999
REV_AT_EPOCH   = 359
BSTAR          = -.28427822E-3
MEAN_MOTION_DOT = -.54357E-3
MEAN_MOTION_DDOT = 0

CCSDS_OMM_VERS = 2.0
CREATION_DATE  = 
ORIGINATOR     = 

OBJECT_NAME    = STARLINK-37002
OBJECT_ID      = 2026-049Y
CENTER_NAME    = EARTH
REF_FRAME      = TEME
TIME_SYSTEM    = UTC
MEAN_ELEMENT_THEORY = SGP/SGP4

EPOCH          = 2026-03-28T04:00:01.999584
MEAN_MOTION    = 15.80817406
ECCENTRICITY   = .00014993
INCLINATION    = 97.2845
RA_OF_ASC_NODE = 107.3501
ARG_OF_PERICENTER = 104.8575
MEAN_ANOMALY   = 76.2708

EPHEMERIS_TYPE = 0
CLASSIFICATION_TYPE = U
NORAD_CAT_ID   = 68164
ELEMENT_SET_NO = 999
REV_AT_EPOCH   = 359
BSTAR          = .92350708E-4
MEAN_MOTION_DOT = .17585E-3
MEAN_MOTION_DDOT = 0

CCSDS_OMM_VERS = 2.0
CREATION_DATE  = 
ORIGINATOR     = 

OBJECT_NAME    = STARLINK-36971
OBJECT_ID      = 2026-049Z
CENTER_NAME    = EARTH
REF_FRAME      = TEME
TIME_SYSTEM    = UTC
MEAN_ELEMENT_THEORY = SGP/SGP4

EPOCH          = 2026-03-28T04:00:01.999584
MEAN_MOTION    = 15.80770433
ECCENTRICITY   = .0001348
INCLINATION    = 97.2843
RA_OF_ASC_NODE = 107.3527
ARG_OF_PERICENTER = 93.4407
MEAN_ANOMALY   = 96.1903

EPHEMERIS_TYPE = 0
CLASSIFICATION_TYPE = U
NORAD_CAT_ID   = 68165
ELEMENT_SET_NO = 999
REV_AT_EPOCH   = 359
BSTAR          = .95211991E-4
MEAN_MOTION_DOT = .18096E-3
MEAN_MOTION_DDOT = 0

CCSDS_OMM_VERS = 2.0
CREATION_DATE  = 
ORIGINATOR     = 

OBJECT_NAME    = STARLINK-36273
OBJECT_ID      = 2026-049AA
CENTER_NAME    = EARTH
REF_FRAME      = TEME
TIME_SYSTEM    = UTC
MEAN_ELEMENT_THEORY = SGP/SGP4

EPOCH          = 2026-03-28T04:00:01.999584
MEAN_MOTION    = 15.75241111
ECCENTRICITY   = .00010017
INCLINATION    = 97.2841
RA_OF_ASC_NODE = 107.3451
ARG_OF_PERICENTER = 93.7852
MEAN_ANOMALY   = 76.7008

EPHEMERIS_TYPE = 0
CLASSIFICATION_TYPE = U
NORAD_CAT_ID   = 68166
ELEMENT_SET_NO = 999
REV_AT_EPOCH   = 360
BSTAR          = -.77029449E-3
MEAN_MOTION_DOT = -.113755E-2
MEAN_MOTION_DDOT = 0

CCSDS_OMM_VERS = 2.0
CREATION_DATE  = 
ORIGINATOR     = 

OBJECT_NAME    = STARLINK-36969
OBJECT_ID      = 2026-050A
CENTER_NAME    = EARTH
REF_FRAME      = TEME
TIME_SYSTEM    = UTC
MEAN_ELEMENT_THEORY = SGP/SGP4

EPOCH          = 2026-03-28T05:05:36.678912
MEAN_MOTION    = 15.80933229
ECCENTRICITY   = .00009984
INCLINATION    = 53.1599
RA_OF_ASC_NODE = 189.0141
ARG_OF_PERICENTER = 67.3473
MEAN_ANOMALY   = 292.7655

EPHEMERIS_TYPE = 0
CLASSIFICATION_TYPE = U
NORAD_CAT_ID   = 68167
ELEMENT_SET_NO = 999
REV_AT_EPOCH   = 340
BSTAR          = .10843701E-2
MEAN_MOTION_DOT = .219455E-2
MEAN_MOTION_DDOT = 0

