STARLINK-36313          
1 68156U 26049Q   26087.16668981 -.00081532  00000+0 -42816-3 0  9999
2 68156  97.2843 107.3378 0001127  92.9677  62.5076 15.80853608  3600
STARLINK-37064          
1 68157U 26049R   26087.16668981 -.00060196  00000+0 -31499-3 0  9998
2 68157  97.2844 107.3348 0000957 110.2935  36.6257 15.80865251  3598
STARLINK-37069          
1 68158U 26049S   26087.16668981 -.00163890  00000+0 -11151-2 0  9996
2 68158  97.2838 107.3344 0001044  89.9743  54.4853 15.75273151  3591
STARLINK-37053          
1 68159U 26049T   26087.16668981 -.00070673  00000+0 -37038-3 0  9996
2 68159  97.2843 107.3453 0001019  89.4234  83.1405 15.80865626  3593
STARLINK-36306          
1 68160U 26049U   26087.16668981 -.00577625  00000+0 -40801-2 0  9998
2 68160  97.2837 107.3431 0001308  60.0038 106.3430 15.75522921  3602
STARLINK-37057          
1 68161U 26049V   26087.16668981 -.00239067  00000+0 -12717-2 0  9999
2 68161  97.2841 107.3413 0001233 106.4048  57.5149 15.80989188  3591
STARLINK-37013          
1 68162U 26049W   26087.16668981 -.00152282  00000+0 -80553-3 0  9997
2 68162  97.2843 107.3534 0001098  87.2345 106.7012 15.80888920  3591
STARLINK-36958          
1 68163U 26049X   26087.16668981 -.00054357  00000+0 -28428-3 0  9995
2 68163  97.2847 107.3520 0001302  77.9736 107.4197 15.80856532  3595
STARLINK-37002          
1 68164U 26049Y   26087.16668981  .00017585  00000+0  92351-4 0  9993
2 68164  97.2845 107.3501 0001499 104.8575  76.2708 15.80817406  3599
STARLINK-36971          
1 68165U 26049Z   26087.16668981  .00018096  00000+0  95212-4 0  9991
2 68165  97.2843 107.3527 0001348  93.4407  96.1903 15.80770433  3592
STARLINK-36273          
1 68166U 26049AA  26087.16668981 -.00113755  00000+0 -77029-3 0  9997
2 68166  97.2841 107.3451 0001001  93.7852  76.7008 15.75241111  3602
STARLINK-36969          
1 68167U 26050A   26087.21223008  .00219455  00000+0  10844-2 0  9996
2 68167  53.1599 189.0141 0000998  67.3473 292.7655 15.80933229  3407
